GLOBALSTAR M067         
1 32263U 07048A   25069.09745890 -.00000049  00000+0  36264-3 0  9996
2 32263  51.9747 325.8788 0001448 107.2939  35.1669 12.40667674797185
GLOBALSTAR M070         
1 32264U 07048B   25069.49918890 -.00000072  00000+0  17816-3 0  9991
2 32264  51.9748  69.1444 0000114 111.8001  55.4292 12.62313606801207
GLOBALSTAR M066         
1 32265U 07048C   25069.62222661 -.00000045  00000+0  40845-3 0  9999
2 32265  51.9654 310.9027 0001963  37.2205 340.3921 12.35251031803129
GLOBALSTAR M068         
1 32266U 07048D   25069.52611826 -.00000086  00000+0  96855-4 0  9992
2 32266  51.9866 243.0081 0000018 308.1480  90.5744 12.62816573805099
GLOBALSTAR M079         
1 37188U 10054A   25069.53948686 -.00000095  00000+0  50106-4 0  9998
2 37188  52.0030  80.0844 0000619  87.8236  90.5946 12.62271475663996
GLOBALSTAR M074         
1 37189U 10054B   25069.48242102 -.00000087  00000+0  94042-4 0  9991
2 37189  52.0006  79.5968 0000426 129.0774  28.8283 12.62267139664599
GLOBALSTAR M076         
1 37190U 10054C   25069.42611153 -.00000088  00000+0  86298-4 0  9998
2 37190  52.0019  79.9258 0000723 116.7979  28.0858 12.62278362664300
GLOBALSTAR M077         
1 37191U 10054D   25069.33560226 -.00000105  00000+0 -48712-5 0  9994
2 37191  52.0089  37.0329 0000420  82.7251  68.1346 12.62271290664660
